     2.10           N: GPS NAV DATA                         RINEX VERSION / TYPE
sbf2rin-5.2.0                           (10-APR-16 00:15)   PGM / RUN BY / DATE 
    1.6764E-08  1.4901E-08 -1.1921E-07 -5.9605E-08          ION ALPHA           
    1.0854E+05  3.2768E+04 -2.6214E+05 -6.5536E+04          ION BETA            
    1.862645149231E-09 0.000000000000E+00   147456     1892 DELTA-UTC: A0,A1,T,W
    17                                                      LEAP SECONDS        
                                                            END OF HEADER       
06 16  4  8  3 59 44.0 1.724641770124E-04 5.684341886081E-12 0.000000000000E+00
    2.000000000000E+00-8.875000000000E+00 5.195573559350E-09 2.853387380386E+00
   -2.458691596985E-07 4.335356643423E-04 3.213062882423E-06 5.153660362244E+03
    4.463840000000E+05 1.024454832077E-07-1.292152890966E+00-9.872019290924E-08
    9.634858389268E-01 3.159375000000E+02-1.594776547244E+00-8.605715605455E-09
   -1.782217093638E-10 1.000000000000E+00 1.891000000000E+03 0.000000000000E+00
    2.000000000000E+00 0.000000000000E+00 4.190951585770E-09 2.000000000000E+00
    4.392180000000E+05 4.000000000000E+00
06 16  4  8  6  0  0.0 1.725051552057E-04 5.684341886081E-12 0.000000000000E+00
    3.000000000000E+00-4.187500000000E+00 5.246647115340E-09-2.378069603710E+00
   -1.005828380585E-07 4.339659353718E-04 3.360211849213E-06 5.153659418106E+03
    4.536000000000E+05-2.980232238770E-08-1.292215884218E+00 1.024454832077E-07
    9.634854059031E-01 3.177187500000E+02-1.593976388109E+00-8.558213626807E-09
    1.607209803882E-11 1.000000000000E+00 1.891000000000E+03 0.000000000000E+00
    2.000000000000E+00 0.000000000000E+00 4.190951585770E-09 3.000000000000E+00
    4.464180000000E+05 4.000000000000E+00
06 16  4  8  8  0  0.0 1.725461333990E-04 5.684341886081E-12 0.000000000000E+00
    4.000000000000E+00 3.093750000000E+00 5.265219317519E-09-1.331212471600E+00
    2.104789018631E-07 4.344772314653E-04 3.777444362640E-06 5.153656513214E+03
    4.608000000000E+05-3.725290298462E-08-1.292277407238E+00 9.313225746155E-09
    9.634859281648E-01 3.095312500000E+02-1.590637467772E+00-8.494639550120E-09
    4.785913638228E-11 1.000000000000E+00 1.891000000000E+03 0.000000000000E+00
    2.000000000000E+00 0.000000000000E+00 4.190951585770E-09 4.000000000000E+00
    4.536180000000E+05 4.000000000000E+00
07 16  4  8 20  0  0.0 4.611341282725E-04-1.932676241267E-12 0.000000000000E+00
    1.600000000000E+01 1.856250000000E+01 5.058782147153E-09-2.533075637202E+00
    8.232891559601E-07 9.231757721864E-03 1.223757863045E-06 5.153654756546E+03
    5.040000000000E+05-3.539025783539E-08 1.875128339308E+00-2.216547727585E-07
    9.665344124493E-01 3.622187500000E+02-2.682547897790E+00-8.617858968417E-09
    1.507205638307E-10 1.000000000000E+00 1.891000000000E+03 0.000000000000E+00
    2.000000000000E+00 0.000000000000E+00-1.117587089539E-08 1.600000000000E+01
    5.009280000000E+05 4.000000000000E+00
07 16  4  8 22  0  0.0 4.611196927726E-04-1.932676241267E-12 0.000000000000E+00
    2.300000000000E+01 1.518750000000E+01 4.989850704453E-09-1.482893813097E+00
    7.022172212601E-07 9.232077980414E-03 7.431954145432E-07 5.153654264450E+03
    5.112000000000E+05 8.568167686462E-08 1.875065667897E+00-1.061707735062E-07
    9.665359558279E-01 3.640937500000E+02-2.682532828271E+00-8.651074637698E-09
    2.442958901901E-10 1.000000000000E+00 1.891000000000E+03 0.000000000000E+00
    2.000000000000E+00 0.000000000000E+00-1.117587089539E-08 2.300000000000E+01
    5.040180000000E+05 4.000000000000E+00
07 16  4  9  0  0  0.0 4.611057229340E-04-1.932676241267E-12 0.000000000000E+00
    2.400000000000E+01 1.309375000000E+01 4.978778814693E-09-4.326750093480E-01
    8.791685104370E-07 9.232028969564E-03 9.536743164062E-07 5.153654542923E+03
    5.184000000000E+05 1.117587089539E-07 1.875003365142E+00 5.029141902924E-08
    9.665369506122E-01 3.625625000000E+02-2.682556065262E+00-8.777865633337E-09
    1.778645516296E-10 1.000000000000E+00 1.891000000000E+03 0.000000000000E+00
    2.000000000000E+00 0.000000000000E+00-1.117587089539E-08 2.400000000000E+01
    5.112180000000E+05 4.000000000000E+00
08 16  4  8 22  0  0.0-3.062980249524E-05-1.477928890381E-12 0.000000000000E+00
    6.900000000000E+01 3.456250000000E+01 4.361967407737E-09 2.343005359144E+00
    1.946464180946E-06 1.816108589992E-03 1.242756843567E-05 5.153677679062E+03
    5.112000000000E+05 1.862645149231E-08-2.344591203303E+00 1.490116119385E-08
    9.627897356913E-01 1.355312500000E+02-1.203049558517E+00-7.917472651659E-09
    4.450185368083E-10 1.000000000000E+00 1.891000000000E+03 0.000000000000E+00
    2.000000000000E+00 0.000000000000E+00 4.656612873077E-09 6.900000000000E+01
    5.040180000000E+05 4.000000000000E+00
08 16  4  8 21 59 28.0-3.063306212425E-05-1.477928890381E-12 0.000000000000E+00
    2.000000000000E+00 3.456250000000E+01 4.361967407737E-09 2.338342815398E+00
    1.946464180946E-06 1.816103584133E-03 1.242756843567E-05 5.153677694321E+03
    5.111680000000E+05 1.862645149231E-08-2.344590918034E+00 1.490116119385E-08
    9.627897195992E-01 1.355312500000E+02-1.203054555845E+00-7.917472651659E-09
    4.450185368083E-10 1.000000000000E+00 1.891000000000E+03 0.000000000000E+00
    2.000000000000E+00 0.000000000000E+00 4.656612873077E-09 2.000000000000E+00
    5.051580000000E+05 4.000000000000E+00
08 16  4  8 23 59 28.0-3.064330667257E-05-1.477928890381E-12 0.000000000000E+00
    1.400000000000E+01 3.218750000000E+01 4.472686305338E-09-2.894377468679E+00
    1.782551407814E-06 1.817013253458E-03 1.236610114574E-05 5.153675796509E+03
    5.183680000000E+05-1.303851604462E-08-2.344648103502E+00 5.401670932770E-08
    9.627930535895E-01 1.435625000000E+02-1.203340809415E+00-7.907829392835E-09
    4.828772566331E-10 1.000000000000E+00 1.891000000000E+03 0.000000000000E+00
    2.000000000000E+00 0.000000000000E+00 4.656612873077E-09 1.400000000000E+01
    5.112180000000E+05 4.000000000000E+00
09 16  4  8 20  0  0.0 1.060469076037E-04 7.503331289627E-12 0.000000000000E+00
    2.800000000000E+01 1.195000000000E+02 4.417684014271E-09 1.214836811744E-01
    6.064772605896E-06 6.481772288680E-04 1.160427927971E-05 5.153614412308E+03
    5.040000000000E+05 1.117587089539E-08 7.967172199330E-01 9.313225746155E-09
    9.555982337593E-01 1.478750000000E+02 2.086399221782E+00-8.098194465162E-09
    4.293035965037E-10 1.000000000000E+00 1.891000000000E+03 0.000000000000E+00
    2.000000000000E+00 0.000000000000E+00 1.396983861923E-09 2.800000000000E+01
    4.968180000000E+05 4.000000000000E+00
09 16  4  8 22  0  0.0 1.061004586518E-04 7.503331289627E-12 0.000000000000E+00
    4.000000000000E+01 1.290000000000E+02 4.344823836495E-09 1.171220001374E+00
    6.727874279022E-06 6.474104011431E-04 1.152046024799E-05 5.153613613129E+03
    5.112000000000E+05 4.656612873077E-08 7.966589372767E-01-3.725290298462E-09
    9.556014697341E-01 1.535000000000E+02 2.086880287763E+00-8.067478900021E-09
    4.328751738457E-10 1.000000000000E+00 1.891000000000E+03 0.000000000000E+00
    2.000000000000E+00 0.000000000000E+00 1.396983861923E-09 4.000000000000E+01
    5.040180000000E+05 4.000000000000E+00
09 16  4  9  0  0  0.0 1.061540096998E-04 7.503331289627E-12 0.000000000000E+00
    4.100000000000E+01 1.248437500000E+02 4.275892393796E-09 2.221564623392E+00
    6.491318345070E-06 6.481321761385E-04 1.110695302486E-05 5.153613286972E+03
    5.184000000000E+05-4.284083843231E-08 7.966017357169E-01 1.136213541031E-07
    9.556047466705E-01 1.632500000000E+02 2.086750649815E+00-7.958545791091E-09
    3.535861568541E-10 1.000000000000E+00 1.891000000000E+03 0.000000000000E+00
    2.000000000000E+00 0.000000000000E+00 1.396983861923E-09 4.100000000000E+01
    5.112180000000E+05 4.000000000000E+00
10 16  4  8 14  0  0.0 7.175840437412E-06-9.777068044059E-12 0.000000000000E+00
    1.800000000000E+01-5.696875000000E+01 4.565547316229E-09-9.557667824028E-01
   -2.918764948845E-06 1.369334873743E-03 1.127459108829E-05 5.153686365128E+03
    4.824000000000E+05 1.676380634308E-08-2.466082406802E-01-3.539025783539E-08
    9.599084951275E-01 1.600625000000E+02-2.780893561916E+00-8.039620596754E-09
   -5.693094283086E-10 1.000000000000E+00 1.891000000000E+03 0.000000000000E+00
    2.000000000000E+00 0.000000000000E+00 2.328306436539E-09 1.800000000000E+01
    4.752180000000E+05 4.000000000000E+00
10 16  4  8 16  0  0.0 7.105991244316E-06-9.777068044059E-12 0.000000000000E+00
    9.900000000000E+01-5.162500000000E+01 4.544117852177E-09 9.405405935195E-02
   -2.648681402206E-06 1.369078760035E-03 1.148320734501E-05 5.153685550690E+03
    4.896000000000E+05 5.587935447693E-08-2.466660493510E-01 9.313225746155E-09
    9.599044574736E-01 1.575937500000E+02-2.780540287681E+00-8.015691028563E-09
   -5.807384758028E-10 1.000000000000E+00 1.891000000000E+03 0.000000000000E+00
    2.000000000000E+00 0.000000000000E+00 2.328306436539E-09 9.900000000000E+01
    4.824180000000E+05 4.000000000000E+00
10 16  4  8 18  0  0.0 7.035676389933E-06-9.777068044059E-12 0.000000000000E+00
    1.000000000000E+02-4.131250000000E+01 4.475543567211E-09 1.143861595867E+00
   -2.220273017883E-06 1.370311132632E-03 1.141428947449E-05 5.153687995911E+03
    4.968000000000E+05 4.097819328308E-08-2.467236780829E-01 2.235174179077E-08
    9.599002647504E-01 1.583437500000E+02-2.780175411042E+00-8.006762085208E-09
   -5.875244727526E-10 1.000000000000E+00 1.891000000000E+03 0.000000000000E+00
    2.000000000000E+00 0.000000000000E+00 2.328306436539E-09 1.000000000000E+02
    4.896180000000E+05 4.000000000000E+00
